[Satellite]
VERSION=1.1
NAME=SRMSAT
NICKNAME=SRMSAT
TLE1=1 37841U 11058D   19317.14738264  .00000310  00000-0  25391-4 0  9992
TLE2=2 37841  19.9709 220.4094 0011775  17.3236 136.2915 14.10643042417547
STATUS=0
